{"type":"FeatureCollection","features":[{"type":"Feature","properties":{"name":"St Anthony Park"},"geometry":{"type":"Polygon","coordinates":[[[-93.20777,44.95972],[-93.20151,44.95996],[-93.18738,44.95437],[-93.18736,44.95983],[-93.18732,44.97236],[-93.17441,44.97118],[-93.16706,44.97022],[-93.16706,44.97028],[-93.16704,44.9749],[-93.17211,44.97491],[-93.1721,44.97728],[-93.17717,44.97726],[-93.17717,44.97726],[-93.18224,44.97725],[-93.1873,44.97724],[-93.18726,44.98085],[-93.18722,44.98446],[-93.18718,44.98808],[-93.19228,44.98807],[-93.19738,44.98807],[-93.20248,44.98807],[-93.20758,44.98806],[-93.20761,44.98445],[-93.20764,44.98083],[-93.20767,44.97721],[-93.20769,44.97361],[-93.20771,44.97001],[-93.20774,44.96641],[-93.20777,44.9628],[-93.20777,44.95972]]]}},{"type":"Feature","properties":{"name":"Como"},"geometry":{"type":"Polygon","coordinates":[[[-93.1261,44.99179],[-93.13118,44.99184],[-93.13625,44.99189],[-93.14136,44.99193],[-93.14646,44.99197],[-93.15151,44.9919],[-93.15655,44.99183],[-93.16423,44.99178],[-93.16683,44.99284],[-93.16689,44.98814],[-93.16693,44.98452],[-93.16697,44.98091],[-93.16708,44.97728],[-93.17209,44.97728],[-93.1721,44.97728],[-93.17211,44.97491],[-93.16704,44.9749],[-93.16706,44.97028],[-93.14659,44.96746],[-93.14173,44.96671],[-93.12624,44.96579],[-93.12629,44.97733],[-93.1261,44.99179]]]}},{"type":"Feature","properties":{"name":"North End"},"geometry":{"type":"Polygon","coordinates":[[[-93.09094,44.96352],[-93.09077,44.96598],[-93.08893,44.97038],[-93.08873,44.97154],[-93.08868,44.98118],[-93.08928,44.9918],[-93.09137,44.99181],[-93.09644,44.99184],[-93.10156,44.99185],[-93.10588,44.99186],[-93.11092,44.99183],[-93.11597,44.9918],[-93.12103,44.99179],[-93.1261,44.99179],[-93.12629,44.97733],[-93.12624,44.96579],[-93.11613,44.96513],[-93.10856,44.96335],[-93.1064,44.96305],[-93.09635,44.96322],[-93.09483,44.96355],[-93.09365,44.96373],[-93.09252,44.96374],[-93.09094,44.96352]]]}},{"type":"Feature","properties":{"name":"Hamline-Midway"},"geometry":{"type":"Polygon","coordinates":[[[-93.18736,44.95983],[-93.17724,44.95585],[-93.17619,44.95564],[-93.14661,44.95572],[-93.14659,44.96746],[-93.16706,44.97028],[-93.16706,44.97022],[-93.17441,44.97118],[-93.18732,44.97236],[-93.18736,44.95983]]]}},{"type":"Feature","properties":{"name":"Macalester-Groveland"},"geometry":{"type":"Polygon","coordinates":[[[-93.14483,44.92692],[-93.14392,44.92866],[-93.14483,44.93081],[-93.1465,44.93182],[-93.14754,44.93222],[-93.14853,44.93275],[-93.1495,44.93346],[-93.15018,44.93417],[-93.15074,44.93507],[-93.15098,44.93577],[-93.1521,44.93932],[-93.15233,44.94001],[-93.15259,44.94076],[-93.15294,44.94144],[-93.20045,44.9415],[-93.20062,44.93789],[-93.20079,44.93429],[-93.20029,44.93066],[-93.19979,44.92704],[-93.14483,44.92692]]]}},{"type":"Feature","properties":{"name":"Highland"},"geometry":{"type":"Polygon","coordinates":[[[-93.14483,44.92692],[-93.19979,44.92704],[-93.19979,44.92702],[-93.20106,44.91984],[-93.20107,44.91533],[-93.20156,44.91309],[-93.20083,44.91006],[-93.19962,44.90831],[-93.19453,44.90567],[-93.19242,44.90426],[-93.19151,44.90276],[-93.19215,44.89747],[-93.19117,44.89639],[-93.18738,44.89498],[-93.18188,44.89407],[-93.17719,44.89355],[-93.17699,44.89307],[-93.17799,44.89127],[-93.1782,44.88908],[-93.1779,44.88827],[-93.17685,44.88776],[-93.17329,44.88743],[-93.1696,44.88809],[-93.16435,44.89033],[-93.15638,44.89218],[-93.15379,44.89294],[-93.15161,44.89474],[-93.14911,44.89778],[-93.14774,44.89851],[-93.14668,44.89907],[-93.14235,44.90166],[-93.14164,44.90208],[-93.13859,44.90389],[-93.14279,44.90843],[-93.1439,44.9109],[-93.1452,44.9102],[-93.14951,44.90731],[-93.15368,44.90513],[-93.15429,44.90578],[-93.15566,44.90868],[-93.15282,44.91001],[-93.14455,44.91562],[-93.1449,44.92219],[-93.14503,44.92491],[-93.14483,44.92692]]]}},{"type":"Feature","properties":{"name":"West Side Community Organization"},"geometry":{"type":"Polygon","coordinates":[[[-93.07929,44.94675],[-93.08388,44.94559],[-93.08987,44.94339],[-93.09431,44.94177],[-93.10145,44.93658],[-93.10518,44.93191],[-93.11062,44.92672],[-93.11562,44.92432],[-93.12253,44.92253],[-93.12863,44.91964],[-93.12597,44.91964],[-93.12577,44.91964],[-93.12093,44.91967],[-93.12025,44.91967],[-93.11588,44.9197],[-93.11435,44.91971],[-93.11083,44.91973],[-93.10578,44.91976],[-93.09932,44.9197],[-93.09599,44.91967],[-93.09603,44.92328],[-93.09094,44.92325],[-93.09091,44.91966],[-93.08583,44.91965],[-93.08067,44.91961],[-93.07552,44.91956],[-93.0704,44.91954],[-93.06529,44.91952],[-93.06021,44.91951],[-93.05513,44.9195],[-93.05027,44.91949],[-93.05195,44.92189],[-93.04957,44.92822],[-93.04946,44.93207],[-93.05125,44.93605],[-93.05689,44.94264],[-93.06328,44.94523],[-93.07113,44.94759],[-93.07622,44.94753],[-93.07929,44.94675]]]}},{"type":"Feature","properties":{"name":"Summit Hill Association"},"geometry":{"type":"Polygon","coordinates":[[[-93.1123,44.9413],[-93.11796,44.94132],[-93.14661,44.9414],[-93.15172,44.94144],[-93.15294,44.94144],[-93.15259,44.94076],[-93.15233,44.94001],[-93.1521,44.93932],[-93.15098,44.93577],[-93.15074,44.93507],[-93.15018,44.93417],[-93.1495,44.93346],[-93.14853,44.93275],[-93.14754,44.93222],[-93.1465,44.93182],[-93.14483,44.93081],[-93.14392,44.92866],[-93.14344,44.92912],[-93.14265,44.92988],[-93.14079,44.93086],[-93.14009,44.93104],[-93.13862,44.93143],[-93.1364,44.9315],[-93.13271,44.93155],[-93.13156,44.93168],[-93.13078,44.93185],[-93.12981,44.93218],[-93.12866,44.93287],[-93.12715,44.93393],[-93.12534,44.93517],[-93.12365,44.93637],[-93.12232,44.93713],[-93.12141,44.9376],[-93.11996,44.9382],[-93.11803,44.93901],[-93.11568,44.9399],[-93.1123,44.9413]]]}},{"type":"Feature","properties":{"name":"Summit-University"},"geometry":{"type":"Polygon","coordinates":[[[-93.10933,44.95488],[-93.10934,44.95577],[-93.12635,44.95571],[-93.14661,44.95572],[-93.14661,44.9414],[-93.11796,44.94132],[-93.11612,44.94243],[-93.11612,44.94158],[-93.11479,44.94204],[-93.11373,44.94223],[-93.10855,44.94452],[-93.10952,44.94481],[-93.11005,44.94507],[-93.10843,44.94613],[-93.10803,44.94676],[-93.10795,44.94828],[-93.10566,44.95092],[-93.10993,44.95094],[-93.10991,44.95136],[-93.1099,44.95187],[-93.10986,44.95219],[-93.10973,44.9526],[-93.10953,44.95302],[-93.10939,44.95339],[-93.10932,44.95398],[-93.10933,44.95488]]]}},{"type":"Feature","properties":{"name":"Thomas-Dale/Frogtown"},"geometry":{"type":"Polygon","coordinates":[[[-93.14659,44.96746],[-93.14661,44.95572],[-93.12635,44.95571],[-93.10934,44.95577],[-93.10933,44.95488],[-93.10591,44.95489],[-93.1059,44.95582],[-93.09739,44.95586],[-93.097,44.95597],[-93.09594,44.95643],[-93.09362,44.95757],[-93.09276,44.95779],[-93.09241,44.95784],[-93.09204,44.95786],[-93.09086,44.95786],[-93.09094,44.96352],[-93.09252,44.96374],[-93.09365,44.96373],[-93.09483,44.96355],[-93.09635,44.96322],[-93.1064,44.96305],[-93.10856,44.96335],[-93.11613,44.96513],[-93.12624,44.96579],[-93.14173,44.96671],[-93.14659,44.96746]]]}},{"type":"Feature","properties":{"name":"West 7th Federation/Fort Road"},"geometry":{"type":"Polygon","coordinates":[[[-93.13859,44.90389],[-93.13651,44.90514],[-93.13367,44.90877],[-93.13258,44.9124],[-93.13122,44.91602],[-93.12863,44.91964],[-93.12253,44.92253],[-93.11562,44.92432],[-93.11062,44.92672],[-93.10518,44.93191],[-93.10145,44.93658],[-93.09431,44.94177],[-93.08987,44.94339],[-93.09284,44.94391],[-93.09485,44.94363],[-93.09722,44.94328],[-93.09869,44.94336],[-93.09998,44.94349],[-93.10127,44.9438],[-93.10406,44.94529],[-93.10441,44.94564],[-93.10463,44.94613],[-93.1047,44.94656],[-93.10527,44.94613],[-93.10628,44.94544],[-93.10761,44.94448],[-93.1092,44.94313],[-93.11013,44.94247],[-93.1123,44.9413],[-93.11568,44.9399],[-93.11803,44.93901],[-93.11996,44.9382],[-93.12141,44.9376],[-93.12232,44.93713],[-93.12365,44.93637],[-93.12534,44.93517],[-93.12715,44.93393],[-93.12866,44.93287],[-93.12981,44.93218],[-93.13078,44.93185],[-93.13156,44.93168],[-93.13271,44.93155],[-93.1364,44.9315],[-93.13862,44.93143],[-93.14009,44.93104],[-93.14079,44.93086],[-93.14265,44.92988],[-93.14344,44.92912],[-93.14392,44.92866],[-93.14483,44.92692],[-93.14503,44.92491],[-93.1449,44.92219],[-93.14455,44.91562],[-93.15282,44.91001],[-93.15566,44.90868],[-93.15429,44.90578],[-93.15368,44.90513],[-93.14951,44.90731],[-93.1452,44.9102],[-93.1439,44.9109],[-93.14279,44.90843],[-93.13859,44.90389]]]}},{"type":"Feature","properties":{"name":"CapitolRiver Council"},"geometry":{"type":"Polygon","coordinates":[[[-93.11796,44.94132],[-93.1123,44.9413],[-93.11013,44.94247],[-93.1092,44.94313],[-93.10761,44.94448],[-93.10628,44.94544],[-93.10527,44.94613],[-93.1047,44.94656],[-93.10463,44.94613],[-93.10441,44.94564],[-93.10406,44.94529],[-93.10127,44.9438],[-93.09998,44.94349],[-93.09869,44.94336],[-93.09722,44.94328],[-93.09485,44.94363],[-93.09284,44.94391],[-93.08987,44.94339],[-93.08388,44.94559],[-93.07929,44.94675],[-93.08256,44.95271],[-93.08346,44.95228],[-93.08486,44.95192],[-93.08621,44.952],[-93.08805,44.95273],[-93.09012,44.95392],[-93.09107,44.95464],[-93.09137,44.95574],[-93.0914,44.95584],[-93.09086,44.95786],[-93.09204,44.95786],[-93.09241,44.95784],[-93.09276,44.95779],[-93.09362,44.95757],[-93.09594,44.95643],[-93.097,44.95597],[-93.09739,44.95586],[-93.1059,44.95582],[-93.10591,44.95489],[-93.10933,44.95488],[-93.10932,44.95398],[-93.10939,44.95339],[-93.10953,44.95302],[-93.10973,44.9526],[-93.10986,44.95219],[-93.1099,44.95187],[-93.10991,44.95136],[-93.10993,44.95094],[-93.10566,44.95092],[-93.10795,44.94828],[-93.10803,44.94676],[-93.10843,44.94613],[-93.11005,44.94507],[-93.10952,44.94481],[-93.10855,44.94452],[-93.11373,44.94223],[-93.11479,44.94204],[-93.11612,44.94158],[-93.11612,44.94243],[-93.11796,44.94132]]]}},{"type":"Feature","properties":{"name":"Payne-Phalen"},"geometry":{"type":"Polygon","coordinates":[[[-93.04556,44.97503],[-93.04552,44.97918],[-93.04488,44.992],[-93.0457,44.99201],[-93.0508,44.992],[-93.05591,44.992],[-93.06102,44.99199],[-93.06612,44.99198],[-93.07116,44.99194],[-93.07621,44.99191],[-93.08125,44.99184],[-93.08629,44.99178],[-93.08928,44.9918],[-93.08868,44.98118],[-93.08873,44.97154],[-93.08893,44.97038],[-93.09077,44.96598],[-93.09094,44.96352],[-93.09086,44.95786],[-93.0914,44.95584],[-93.09137,44.95574],[-93.07715,44.95576],[-93.07741,44.95729],[-93.07732,44.95929],[-93.07715,44.95977],[-93.07691,44.96016],[-93.07632,44.96068],[-93.07569,44.96104],[-93.07447,44.9612],[-93.07375,44.96141],[-93.0732,44.96185],[-93.07287,44.9622],[-93.07245,44.96282],[-93.07234,44.9639],[-93.07253,44.96522],[-93.07255,44.96564],[-93.07241,44.96604],[-93.07214,44.96641],[-93.07158,44.9668],[-93.07097,44.967],[-93.07034,44.96706],[-93.06964,44.96697],[-93.06889,44.9667],[-93.06816,44.96633],[-93.06755,44.96615],[-93.06314,44.96582],[-93.06105,44.96589],[-93.05733,44.9667],[-93.05412,44.96735],[-93.05092,44.9681],[-93.04864,44.96979],[-93.04707,44.97114],[-93.04599,44.97267],[-93.04556,44.97503]]]}},{"type":"Feature","properties":{"name":"The Greater East Side"},"geometry":{"type":"Polygon","coordinates":[[[-93.04556,44.97503],[-93.04479,44.97456],[-93.04457,44.97435],[-93.04407,44.97336],[-93.04398,44.97248],[-93.04398,44.97173],[-93.04418,44.97125],[-93.04485,44.97037],[-93.04495,44.97002],[-93.04496,44.96887],[-93.04497,44.96641],[-93.04517,44.96566],[-93.04565,44.96518],[-93.04595,44.9645],[-93.04595,44.96307],[-93.03958,44.96305],[-93.00505,44.96304],[-93.00509,44.96666],[-93.00513,44.97028],[-93.00512,44.9739],[-93.00511,44.97752],[-93.0051,44.98114],[-93.00509,44.98475],[-93.00508,44.98837],[-93.00507,44.99198],[-93.01005,44.99197],[-93.01504,44.99196],[-93.02013,44.99195],[-93.02522,44.99194],[-93.03034,44.99196],[-93.03546,44.99197],[-93.04058,44.99199],[-93.04488,44.992],[-93.04552,44.97918],[-93.04556,44.97503]]]}},{"type":"Feature","properties":{"name":"Dayton's Bluff"},"geometry":{"type":"Polygon","coordinates":[[[-93.05689,44.94264],[-93.04052,44.94725],[-93.0409,44.95276],[-93.03946,44.95399],[-93.03949,44.95765],[-93.03631,44.95769],[-93.03629,44.96033],[-93.0396,44.96034],[-93.03958,44.96305],[-93.04595,44.96307],[-93.04595,44.9645],[-93.04565,44.96518],[-93.04517,44.96566],[-93.04497,44.96641],[-93.04496,44.96887],[-93.04495,44.97002],[-93.04485,44.97037],[-93.04418,44.97125],[-93.04398,44.97173],[-93.04398,44.97248],[-93.04407,44.97336],[-93.04457,44.97435],[-93.04479,44.97456],[-93.04556,44.97503],[-93.04599,44.97267],[-93.04707,44.97114],[-93.04864,44.96979],[-93.05092,44.9681],[-93.05412,44.96735],[-93.05733,44.9667],[-93.06105,44.96589],[-93.06314,44.96582],[-93.06755,44.96615],[-93.06816,44.96633],[-93.06889,44.9667],[-93.06964,44.96697],[-93.07034,44.96706],[-93.07097,44.967],[-93.07158,44.9668],[-93.07214,44.96641],[-93.07241,44.96604],[-93.07255,44.96564],[-93.07253,44.96522],[-93.07234,44.9639],[-93.07245,44.96282],[-93.07287,44.9622],[-93.0732,44.96185],[-93.07375,44.96141],[-93.07447,44.9612],[-93.07569,44.96104],[-93.07632,44.96068],[-93.07691,44.96016],[-93.07715,44.95977],[-93.07732,44.95929],[-93.07741,44.95729],[-93.07715,44.95576],[-93.09137,44.95574],[-93.09107,44.95464],[-93.09012,44.95392],[-93.08805,44.95273],[-93.08621,44.952],[-93.08486,44.95192],[-93.08346,44.95228],[-93.08256,44.95271],[-93.07929,44.94675],[-93.07622,44.94753],[-93.07113,44.94759],[-93.06328,44.94523],[-93.05689,44.94264]]]}},{"type":"Feature","properties":{"name":"Eastview-Conway-Battle Creek-Highwood Hills"},"geometry":{"type":"Polygon","coordinates":[[[-93.05027,44.91949],[-93.04518,44.9123],[-93.04212,44.90509],[-93.03473,44.89782],[-93.02461,44.89406],[-93.02004,44.89074],[-93.01951,44.89074],[-93.01839,44.89074],[-93.01783,44.89074],[-93.01445,44.89075],[-93.00939,44.89075],[-93.00432,44.89076],[-93.00433,44.89434],[-93.00433,44.89791],[-93.00441,44.90149],[-93.00448,44.90506],[-93.00455,44.90865],[-93.00462,44.91223],[-93.00472,44.91583],[-93.00482,44.91943],[-93.00482,44.92303],[-93.00482,44.92663],[-93.00482,44.93023],[-93.00482,44.93383],[-93.00487,44.93743],[-93.00491,44.94104],[-93.00495,44.94464],[-93.005,44.94862],[-93.00502,44.95223],[-93.00503,44.95583],[-93.00504,44.95943],[-93.00505,44.96304],[-93.03958,44.96305],[-93.0396,44.96034],[-93.03629,44.96033],[-93.03631,44.95769],[-93.03949,44.95765],[-93.03946,44.95399],[-93.0409,44.95276],[-93.04052,44.94725],[-93.05689,44.94264],[-93.05125,44.93605],[-93.04946,44.93207],[-93.04957,44.92822],[-93.05195,44.92189],[-93.05027,44.91949]]]}},{"type":"Feature","properties":{"name":"Union Park"},"geometry":{"type":"Polygon","coordinates":[[[-93.14661,44.9414],[-93.14661,44.95572],[-93.17619,44.95564],[-93.17724,44.95585],[-93.18736,44.95983],[-93.18738,44.95437],[-93.20151,44.95996],[-93.20777,44.95972],[-93.20777,44.95918],[-93.20776,44.95557],[-93.20776,44.95413],[-93.20776,44.95325],[-93.20775,44.95305],[-93.20502,44.95195],[-93.20264,44.94833],[-93.2016,44.9451],[-93.20045,44.9415],[-93.15294,44.94144],[-93.15172,44.94144],[-93.14661,44.9414]]]}}]}