{"type":"FeatureCollection","features":[{"type":"Feature","properties":{"name":"Minneapolis Northwest"},"geometry":{"type":"Polygon","coordinates":[[[-93.31884,45.05121],[-93.31875,45.04204],[-93.32255,45.04297],[-93.32255,45.04031],[-93.31866,45.04031],[-93.31862,45.03548],[-93.31824,45.03551],[-93.31811,44.98074],[-93.3139,44.98071],[-93.31326,44.97931],[-93.31218,44.97848],[-93.31062,44.97803],[-93.30937,44.97771],[-93.3088,44.97789],[-93.30806,44.9778],[-93.30677,44.97758],[-93.30588,44.9776],[-93.30529,44.97733],[-93.3052,44.97701],[-93.30504,44.9767],[-93.30463,44.97656],[-93.30402,44.97665],[-93.30357,44.97673],[-93.30287,44.97638],[-93.30208,44.97613],[-93.30112,44.97595],[-93.29905,44.9764],[-93.2973,44.97717],[-93.28768,44.97718],[-93.28765,44.97885],[-93.28754,44.98114],[-93.28753,44.98319],[-93.28788,44.98501],[-93.2883,44.98685],[-93.2883,44.988],[-93.28785,44.98944],[-93.28702,44.99039],[-93.28498,44.99208],[-93.27656,44.99208],[-93.27529,44.99227],[-93.27293,44.99304],[-93.27352,44.99389],[-93.2742,44.99518],[-93.27459,44.99696],[-93.27484,44.99926],[-93.27452,45.00091],[-93.27376,45.00285],[-93.27337,45.00585],[-93.27385,45.01002],[-93.27372,45.01198],[-93.27618,45.02039],[-93.27816,45.02465],[-93.2819,45.03109],[-93.28259,45.03233],[-93.28301,45.03411],[-93.28291,45.03556],[-93.28204,45.03967],[-93.28117,45.04234],[-93.28078,45.04361],[-93.28188,45.04959],[-93.2821,45.05121],[-93.31884,45.05121]]]}},{"type":"Feature","properties":{"name":"Minneapolis Uptown Lakes"},"geometry":{"type":"Polygon","coordinates":[[[-93.28768,44.97718],[-93.2973,44.97717],[-93.29905,44.9764],[-93.30112,44.97595],[-93.30208,44.97613],[-93.30287,44.97638],[-93.30357,44.97673],[-93.30402,44.97665],[-93.30463,44.97656],[-93.30504,44.9767],[-93.3052,44.97701],[-93.30529,44.97733],[-93.30588,44.9776],[-93.30677,44.97758],[-93.30806,44.9778],[-93.3088,44.97789],[-93.30937,44.97771],[-93.31062,44.97803],[-93.31218,44.97848],[-93.31326,44.97931],[-93.3139,44.98071],[-93.31811,44.98074],[-93.31811,44.97722],[-93.32848,44.9772],[-93.32871,44.96645],[-93.32903,44.91802],[-93.30752,44.91802],[-93.30752,44.91973],[-93.27461,44.91973],[-93.27483,44.93138],[-93.27461,44.94855],[-93.2745,44.94995],[-93.27417,44.95049],[-93.27296,44.95235],[-93.27087,44.95492],[-93.26978,44.95639],[-93.26934,44.95732],[-93.26934,44.95895],[-93.2694,44.96096],[-93.26945,44.96276],[-93.28788,44.96276],[-93.28768,44.97561],[-93.28768,44.97718]]]}},{"type":"Feature","properties":{"name":"Minneapolis Northeast"},"geometry":{"type":"Polygon","coordinates":[[[-93.20762,44.95312],[-93.20758,44.95936],[-93.20739,44.98779],[-93.20724,45.00621],[-93.21724,45.00621],[-93.21724,45.01328],[-93.22661,45.01328],[-93.22661,45.03561],[-93.28291,45.03556],[-93.28301,45.03411],[-93.28259,45.03233],[-93.2819,45.03109],[-93.27816,45.02465],[-93.27618,45.02039],[-93.27372,45.01198],[-93.27385,45.01002],[-93.27337,45.00585],[-93.27376,45.00285],[-93.27452,45.00091],[-93.27484,44.99926],[-93.27459,44.99696],[-93.2742,44.99518],[-93.27352,44.99389],[-93.27293,44.99304],[-93.2709,44.9915],[-93.2682,44.99015],[-93.26708,44.98953],[-93.26608,44.9877],[-93.26484,44.98631],[-93.26265,44.98461],[-93.26138,44.98381],[-93.25883,44.98252],[-93.25439,44.98049],[-93.25058,44.9796],[-93.24693,44.97915],[-93.24248,44.97859],[-93.24098,44.97792],[-93.23996,44.97713],[-93.23924,44.9761],[-93.23899,44.97431],[-93.24159,44.97431],[-93.2427,44.9752],[-93.24303,44.97543],[-93.2435,44.97565],[-93.24549,44.97565],[-93.24568,44.97498],[-93.24569,44.97015],[-93.24145,44.97015],[-93.23829,44.97102],[-93.23772,44.97018],[-93.23668,44.96961],[-93.23541,44.96923],[-93.23367,44.96912],[-93.23121,44.96876],[-93.22812,44.96786],[-93.22658,44.96693],[-93.22146,44.9626],[-93.21724,44.95938],[-93.21438,44.95724],[-93.21274,44.95614],[-93.20762,44.95312]]]}},{"type":"Feature","properties":{"name":"Saint Paul University East"},"geometry":{"type":"Polygon","coordinates":[[[-93.20739,44.98779],[-93.20758,44.95936],[-93.20596,44.95954],[-93.20469,44.95986],[-93.20303,44.95997],[-93.20136,44.95977],[-93.19863,44.95801],[-93.19245,44.95573],[-93.19245,44.95708],[-93.18977,44.96041],[-93.17674,44.95525],[-93.10597,44.9556],[-93.10582,44.99189],[-93.16416,44.99163],[-93.16417,44.99273],[-93.16643,44.99273],[-93.16643,44.99008],[-93.16684,44.98763],[-93.16678,44.97701],[-93.18722,44.97701],[-93.18722,44.98777],[-93.20739,44.98779]]]}},{"type":"Feature","properties":{"name":"Saint Paul Southeast"},"geometry":{"type":"Polygon","coordinates":[[[-93.10597,44.9556],[-93.10593,44.95083],[-93.1014,44.9503],[-93.10001,44.95064],[-93.09806,44.95133],[-93.09545,44.95288],[-93.09307,44.95397],[-93.09179,44.95438],[-93.09052,44.95421],[-93.08927,44.95321],[-93.087,44.95195],[-93.08576,44.95166],[-93.08446,44.95168],[-93.08245,44.95237],[-93.07925,44.94653],[-93.09212,44.94222],[-93.11102,44.9268],[-93.12896,44.91948],[-93.09604,44.91947],[-93.09607,44.92323],[-93.0908,44.92323],[-93.09091,44.91955],[-93.05005,44.91948],[-93.04554,44.91207],[-93.04221,44.90467],[-93.03496,44.89776],[-93.02498,44.89414],[-93.02058,44.89061],[-93.00465,44.89061],[-93.00472,44.95048],[-93.00477,44.99222],[-93.06537,44.99258],[-93.10582,44.99189],[-93.10597,44.9556]]]}},{"type":"Feature","properties":{"name":"Minneapolis South"},"geometry":{"type":"Polygon","coordinates":[[[-93.19451,44.90552],[-93.19839,44.908],[-93.19989,44.90947],[-93.20082,44.91094],[-93.20166,44.91566],[-93.20151,44.91909],[-93.20089,44.92489],[-93.20012,44.92854],[-93.20074,44.93232],[-93.20101,44.93747],[-93.20101,44.94544],[-93.20109,44.9468],[-93.20193,44.94904],[-93.2032,44.95067],[-93.20539,44.9523],[-93.20762,44.95312],[-93.21274,44.95614],[-93.21501,44.95472],[-93.21824,44.95366],[-93.2212,44.95328],[-93.22601,44.95347],[-93.23439,44.95377],[-93.23794,44.95433],[-93.24128,44.9557],[-93.24401,44.95758],[-93.24721,44.96089],[-93.24962,44.9609],[-93.24962,44.95916],[-93.26239,44.95916],[-93.26239,44.96095],[-93.2694,44.96096],[-93.26934,44.95895],[-93.26934,44.95732],[-93.26978,44.95639],[-93.27087,44.95492],[-93.27296,44.95235],[-93.27417,44.95049],[-93.2745,44.94995],[-93.27461,44.94855],[-93.27483,44.93138],[-93.27461,44.91973],[-93.30752,44.91973],[-93.30752,44.91802],[-93.32903,44.91802],[-93.32914,44.90522],[-93.31867,44.90522],[-93.31869,44.89081],[-93.20785,44.8909],[-93.20785,44.90552],[-93.19535,44.90552],[-93.19451,44.90552]]]}},{"type":"Feature","properties":{"name":"Saint Paul Summit Mac Groveland"},"geometry":{"type":"Polygon","coordinates":[[[-93.09212,44.94222],[-93.09286,44.94386],[-93.09465,44.94352],[-93.09725,44.94313],[-93.09957,44.94321],[-93.10154,44.94361],[-93.10308,44.94445],[-93.10395,44.94534],[-93.10419,44.94637],[-93.10477,44.9475],[-93.10726,44.94885],[-93.10593,44.95083],[-93.10597,44.9556],[-93.17674,44.95525],[-93.18977,44.96041],[-93.19245,44.95708],[-93.19245,44.95573],[-93.19863,44.95801],[-93.20136,44.95977],[-93.20303,44.95997],[-93.20469,44.95986],[-93.20596,44.95954],[-93.20758,44.95936],[-93.20762,44.95312],[-93.20539,44.9523],[-93.2032,44.95067],[-93.20193,44.94904],[-93.20109,44.9468],[-93.20101,44.94544],[-93.20101,44.93747],[-93.20074,44.93232],[-93.20012,44.92854],[-93.20089,44.92489],[-93.20151,44.91909],[-93.20166,44.91566],[-93.20082,44.91094],[-93.19989,44.90947],[-93.19839,44.908],[-93.19451,44.90552],[-93.19535,44.90552],[-93.19316,44.9044],[-93.1915,44.90322],[-93.19138,44.90238],[-93.19174,44.90153],[-93.19174,44.90086],[-93.19245,44.89909],[-93.19257,44.89817],[-93.19257,44.89707],[-93.19221,44.89665],[-93.19126,44.89589],[-93.19007,44.89514],[-93.18829,44.89471],[-93.1858,44.89429],[-93.1776,44.89328],[-93.17819,44.89211],[-93.17819,44.89084],[-93.17819,44.89025],[-93.17795,44.88975],[-93.17879,44.88857],[-93.17873,44.88794],[-93.17605,44.88643],[-93.17249,44.88697],[-93.17118,44.88739],[-93.16952,44.88764],[-93.16761,44.88857],[-93.16476,44.88992],[-93.15787,44.89101],[-93.15561,44.89194],[-93.15371,44.89295],[-93.15169,44.8948],[-93.14991,44.89682],[-93.14812,44.89817],[-93.14171,44.90187],[-93.13853,44.90379],[-93.13684,44.90482],[-93.13375,44.90827],[-93.13291,44.91155],[-93.13232,44.91365],[-93.13161,44.91584],[-93.13089,44.91652],[-93.12982,44.91811],[-93.12896,44.91948],[-93.11102,44.9268],[-93.09212,44.94222]]]}},{"type":"Feature","properties":{"name":"Saint Paul Downtown"},"geometry":{"type":"Polygon","coordinates":[[[-93.08245,44.95237],[-93.08446,44.95168],[-93.08576,44.95166],[-93.087,44.95195],[-93.08927,44.95321],[-93.09052,44.95421],[-93.09179,44.95438],[-93.09307,44.95397],[-93.09545,44.95288],[-93.09806,44.95133],[-93.10001,44.95064],[-93.1014,44.9503],[-93.10593,44.95083],[-93.10726,44.94885],[-93.10477,44.9475],[-93.10419,44.94637],[-93.10395,44.94534],[-93.10308,44.94445],[-93.10154,44.94361],[-93.09957,44.94321],[-93.09725,44.94313],[-93.09465,44.94352],[-93.09286,44.94386],[-93.09212,44.94222],[-93.07925,44.94653],[-93.08245,44.95237]]]}},{"type":"Feature","properties":{"name":"Minneapolis Downtown"},"geometry":{"type":"Polygon","coordinates":[[[-93.27293,44.99304],[-93.27529,44.99227],[-93.27656,44.99208],[-93.28498,44.99208],[-93.28702,44.99039],[-93.28785,44.98944],[-93.2883,44.988],[-93.2883,44.98685],[-93.28788,44.98501],[-93.28753,44.98319],[-93.28754,44.98114],[-93.28765,44.97885],[-93.28768,44.97718],[-93.28768,44.97561],[-93.28788,44.96276],[-93.26945,44.96276],[-93.2694,44.96096],[-93.26239,44.96095],[-93.26239,44.95916],[-93.24962,44.95916],[-93.24962,44.9609],[-93.24721,44.96089],[-93.24401,44.95758],[-93.24128,44.9557],[-93.23794,44.95433],[-93.23439,44.95377],[-93.22601,44.95347],[-93.2212,44.95328],[-93.21824,44.95366],[-93.21501,44.95472],[-93.21274,44.95614],[-93.21438,44.95724],[-93.21724,44.95938],[-93.22146,44.9626],[-93.22658,44.96693],[-93.22812,44.96786],[-93.23121,44.96876],[-93.23367,44.96912],[-93.23541,44.96923],[-93.23668,44.96961],[-93.23772,44.97018],[-93.23829,44.97102],[-93.24145,44.97015],[-93.24569,44.97015],[-93.24568,44.97498],[-93.24549,44.97565],[-93.2435,44.97565],[-93.24303,44.97543],[-93.2427,44.9752],[-93.24159,44.97431],[-93.23899,44.97431],[-93.23924,44.9761],[-93.23996,44.97713],[-93.24098,44.97792],[-93.24248,44.97859],[-93.24693,44.97915],[-93.25058,44.9796],[-93.25439,44.98049],[-93.25883,44.98252],[-93.26138,44.98381],[-93.26265,44.98461],[-93.26484,44.98631],[-93.26608,44.9877],[-93.26708,44.98953],[-93.2682,44.99015],[-93.2709,44.9915],[-93.27293,44.99304]]]}},{"type":"Feature","properties":{"name":"North Central"},"geometry":{"type":"Polygon","coordinates":[[[-93.10582,44.99189],[-93.10574,45.10854],[-93.11182,45.10854],[-93.11182,45.11552],[-93.09699,45.11552],[-93.09699,45.12438],[-93.05555,45.12438],[-93.05555,45.14986],[-93.06087,45.14986],[-93.06087,45.16755],[-93.06924,45.16755],[-93.06924,45.17506],[-93.06087,45.17506],[-93.06087,45.19623],[-93.05288,45.19896],[-93.04072,45.20914],[-93.02893,45.21825],[-93.02817,45.23807],[-93.02779,45.24529],[-93.02285,45.2544],[-93.01904,45.25788],[-93.01915,45.29729],[-93.30674,45.29771],[-93.30642,45.19752],[-93.30642,45.19323],[-93.31161,45.18653],[-93.31681,45.18019],[-93.31744,45.17903],[-93.31765,45.15401],[-93.33291,45.15392],[-93.33037,45.15284],[-93.32771,45.15106],[-93.32251,45.14695],[-93.31884,45.14587],[-93.3139,45.14498],[-93.31187,45.14417],[-93.31022,45.14248],[-93.30946,45.14006],[-93.3081,45.13786],[-93.3011,45.13208],[-93.29952,45.12953],[-93.29706,45.12699],[-93.29608,45.12213],[-93.29592,45.1182],[-93.29444,45.11415],[-93.29176,45.11219],[-93.28789,45.11072],[-93.28046,45.10583],[-93.27827,45.10336],[-93.27904,45.09769],[-93.2798,45.09013],[-93.28019,45.08925],[-93.28024,45.08385],[-93.27898,45.08015],[-93.28078,45.0717],[-93.2821,45.0695],[-93.28286,45.06769],[-93.28412,45.06502],[-93.28516,45.05847],[-93.2821,45.05121],[-93.28188,45.04959],[-93.28078,45.04361],[-93.28117,45.04234],[-93.28204,45.03967],[-93.28291,45.03556],[-93.22661,45.03561],[-93.22661,45.01328],[-93.21724,45.01328],[-93.21724,45.00621],[-93.20739,44.98779],[-93.18722,44.98777],[-93.18722,44.97701],[-93.16678,44.97701],[-93.16643,44.99008],[-93.16643,44.99273],[-93.16417,44.99273],[-93.16416,44.99163],[-93.10582,44.99189]]]}},{"type":"Feature","properties":{"name":"Northeast"},"geometry":{"type":"Polygon","coordinates":[[[-93.00472,44.95048],[-92.98981,44.94815],[-92.84945,44.94892],[-92.82807,44.94905],[-92.82076,44.94931],[-92.8116,44.95044],[-92.8088,44.95149],[-92.80939,45.0158],[-92.80939,45.12616],[-92.80916,45.29761],[-93.01915,45.29729],[-93.01904,45.25788],[-93.02285,45.2544],[-93.02779,45.24529],[-93.02817,45.23807],[-93.02893,45.21825],[-93.04072,45.20914],[-93.05288,45.19896],[-93.06087,45.19623],[-93.06087,45.17506],[-93.06924,45.17506],[-93.06924,45.16755],[-93.06087,45.16755],[-93.06087,45.14986],[-93.05555,45.14986],[-93.05555,45.12438],[-93.09699,45.12438],[-93.09699,45.11552],[-93.11182,45.11552],[-93.11182,45.10854],[-93.10574,45.10854],[-93.10582,44.99189],[-93.00477,44.99222],[-93.00472,44.95048]]]}},{"type":"Feature","properties":{"name":"Southeast"},"geometry":{"type":"Polygon","coordinates":[[[-92.8088,44.95149],[-92.8116,44.95044],[-92.82076,44.94931],[-92.82807,44.94905],[-92.84945,44.94892],[-92.98981,44.94815],[-93.00472,44.95048],[-93.00465,44.89061],[-93.02058,44.89061],[-93.02498,44.89414],[-93.03496,44.89776],[-93.04221,44.90467],[-93.04554,44.91207],[-93.05005,44.91948],[-93.09091,44.91955],[-93.0908,44.92323],[-93.09607,44.92323],[-93.09604,44.91947],[-93.12896,44.91948],[-93.12982,44.91811],[-93.13089,44.91652],[-93.13161,44.91584],[-93.13232,44.91365],[-93.13291,44.91155],[-93.13375,44.90827],[-93.13684,44.90482],[-93.13853,44.90379],[-93.13685,44.90206],[-93.13412,44.89895],[-93.13257,44.89679],[-93.1316,44.89573],[-93.13107,44.89451],[-93.13102,44.893],[-93.13134,44.89038],[-93.13182,44.88886],[-93.13241,44.88799],[-93.13348,44.88715],[-93.13589,44.88579],[-93.1375,44.88473],[-93.13878,44.88363],[-93.10624,44.88361],[-93.10624,44.79597],[-93.11653,44.79597],[-93.11653,44.80474],[-93.18795,44.80474],[-93.18795,44.73186],[-93.17662,44.73186],[-93.17662,44.6308],[-93.1567,44.6308],[-93.15663,44.5419],[-92.80772,44.54203],[-92.8088,44.74676],[-92.8088,44.95149]]]}},{"type":"Feature","properties":{"name":"South"},"geometry":{"type":"Polygon","coordinates":[[[-93.31869,44.89081],[-93.31883,44.86122],[-93.32361,44.86037],[-93.32919,44.85897],[-93.32937,44.7976],[-93.32613,44.7976],[-93.32613,44.79167],[-93.3365,44.79165],[-93.33647,44.77954],[-93.32842,44.77951],[-93.32835,44.71753],[-93.31819,44.71751],[-93.31796,44.54181],[-93.15663,44.5419],[-93.1567,44.6308],[-93.17662,44.6308],[-93.17662,44.73186],[-93.18795,44.73186],[-93.18795,44.80474],[-93.11653,44.80474],[-93.11653,44.79597],[-93.10624,44.79597],[-93.10624,44.88361],[-93.13878,44.88363],[-93.1375,44.88473],[-93.13589,44.88579],[-93.13348,44.88715],[-93.13241,44.88799],[-93.13182,44.88886],[-93.13134,44.89038],[-93.13102,44.893],[-93.13107,44.89451],[-93.1316,44.89573],[-93.13257,44.89679],[-93.13412,44.89895],[-93.13685,44.90206],[-93.13853,44.90379],[-93.14171,44.90187],[-93.14812,44.89817],[-93.14991,44.89682],[-93.15169,44.8948],[-93.15371,44.89295],[-93.15561,44.89194],[-93.15787,44.89101],[-93.16476,44.88992],[-93.16761,44.88857],[-93.16952,44.88764],[-93.17118,44.88739],[-93.17249,44.88697],[-93.17605,44.88643],[-93.17873,44.88794],[-93.17879,44.88857],[-93.17795,44.88975],[-93.17819,44.89025],[-93.17819,44.89084],[-93.17819,44.89211],[-93.1776,44.89328],[-93.1858,44.89429],[-93.18829,44.89471],[-93.19007,44.89514],[-93.19126,44.89589],[-93.19221,44.89665],[-93.19257,44.89707],[-93.19257,44.89817],[-93.19245,44.89909],[-93.19174,44.90086],[-93.19174,44.90153],[-93.19138,44.90238],[-93.1915,44.90322],[-93.19316,44.9044],[-93.19535,44.90552],[-93.20785,44.90552],[-93.20785,44.8909],[-93.31869,44.89081]]]}},{"type":"Feature","properties":{"name":"Southwest"},"geometry":{"type":"Polygon","coordinates":[[[-93.32888,44.96633],[-93.34382,44.96647],[-93.34388,44.97022],[-93.34965,44.97017],[-93.34965,44.97098],[-93.3749,44.97074],[-93.40074,44.97121],[-93.40074,44.97828],[-93.41065,44.97838],[-93.41065,44.97313],[-93.41498,44.97221],[-93.41825,44.97111],[-93.42151,44.97099],[-93.46065,44.97099],[-93.46062,44.97848],[-93.54819,44.97852],[-93.76878,44.97814],[-93.76823,44.61937],[-93.76823,44.54183],[-93.31813,44.54169],[-93.31836,44.71739],[-93.32852,44.71741],[-93.32859,44.77939],[-93.33664,44.77942],[-93.33667,44.79153],[-93.3263,44.79155],[-93.3263,44.79748],[-93.32954,44.79748],[-93.32936,44.85885],[-93.32378,44.86025],[-93.319,44.8611],[-93.31886,44.89069],[-93.31885,44.9051],[-93.32931,44.9051],[-93.3292,44.9179],[-93.32888,44.96633]]]}},{"type":"Feature","properties":{"name":"Northwest"},"geometry":{"type":"Polygon","coordinates":[[[-93.30674,45.29771],[-93.76879,45.29796],[-93.76861,44.97826],[-93.54802,44.97864],[-93.46045,44.9786],[-93.46047,44.97111],[-93.42133,44.97111],[-93.41807,44.97124],[-93.41481,44.97233],[-93.41048,44.97325],[-93.41048,44.9785],[-93.40057,44.9784],[-93.40057,44.97133],[-93.37473,44.97087],[-93.34948,44.97111],[-93.34948,44.97029],[-93.34371,44.97034],[-93.34364,44.96659],[-93.32871,44.96645],[-93.32848,44.9772],[-93.31811,44.97722],[-93.31811,44.98074],[-93.31824,45.03551],[-93.31862,45.03548],[-93.31866,45.04031],[-93.32255,45.04031],[-93.32255,45.04297],[-93.31875,45.04204],[-93.31884,45.05121],[-93.2821,45.05121],[-93.28516,45.05847],[-93.28412,45.06502],[-93.28286,45.06769],[-93.2821,45.0695],[-93.28078,45.0717],[-93.27898,45.08015],[-93.28024,45.08385],[-93.28019,45.08925],[-93.2798,45.09013],[-93.27904,45.09769],[-93.27827,45.10336],[-93.28046,45.10583],[-93.28789,45.11072],[-93.29176,45.11219],[-93.29444,45.11415],[-93.29592,45.1182],[-93.29608,45.12213],[-93.29706,45.12699],[-93.29952,45.12953],[-93.3011,45.13208],[-93.3081,45.13786],[-93.30946,45.14006],[-93.31022,45.14248],[-93.31187,45.14417],[-93.3139,45.14498],[-93.31884,45.14587],[-93.32251,45.14695],[-93.32771,45.15106],[-93.33037,45.15284],[-93.33291,45.15392],[-93.31765,45.15401],[-93.31744,45.17903],[-93.31681,45.18019],[-93.31161,45.18653],[-93.30642,45.19323],[-93.30642,45.19752],[-93.30674,45.29771]]]}}]}